[{"OBJECT_NAME":"STARLINK-30384","OBJECT_ID":"2023-134D","EPOCH":"2026-03-09T22:00:01.999584","MEAN_MOTION":15.17829384,"ECCENTRICITY":0.00022152,"INCLINATION":43,"RA_OF_ASC_NODE":195.5861,"ARG_OF_PERICENTER":278.8011,"MEAN_ANOMALY":78.3931,"EPHEMERIS_TYPE":0,"CLASSIFICATION_TYPE":"U","NORAD_CAT_ID":57774,"ELEMENT_SET_NO":999,"REV_AT_EPOCH":572,"BSTAR":0.0038674062,"MEAN_MOTION_DOT":0.0008037,"MEAN_MOTION_DDOT":0},{"OBJECT_NAME":"ELECTRON KICK STAGE R\/B","OBJECT_ID":"2020-037F","EPOCH":"2026-03-09T12:31:51.369312","MEAN_MOTION":15.17920372,"ECCENTRICITY":0.00076355,"INCLINATION":97.7675,"RA_OF_ASC_NODE":269.629,"ARG_OF_PERICENTER":117.3214,"MEAN_ANOMALY":242.8797,"EPHEMERIS_TYPE":0,"CLASSIFICATION_TYPE":"U","NORAD_CAT_ID":45728,"ELEMENT_SET_NO":999,"REV_AT_EPOCH":10307,"BSTAR":0.00051900437,"MEAN_MOTION_DOT":0.00010471,"MEAN_MOTION_DDOT":0}]
